[{"OBJECT_NAME":"STARLINK-4778","OBJECT_ID":"2022-114U","EPOCH":"2026-03-09T20:31:14.377728","MEAN_MOTION":15.08832122,"ECCENTRICITY":0.0001306,"INCLINATION":53.2188,"RA_OF_ASC_NODE":293.579,"ARG_OF_PERICENTER":85.4785,"MEAN_ANOMALY":274.6356,"EPHEMERIS_TYPE":0,"CLASSIFICATION_TYPE":"U","NORAD_CAT_ID":53836,"ELEMENT_SET_NO":999,"REV_AT_EPOCH":19299,"BSTAR":-0.00018423383,"MEAN_MOTION_DOT":-3.218e-5,"MEAN_MOTION_DDOT":0},{"OBJECT_NAME":"LEMUR-2-ESPERANZA","OBJECT_ID":"2025-061B","EPOCH":"2026-03-09T20:59:51.017856","MEAN_MOTION":15.12770808,"ECCENTRICITY":0.00169494,"INCLINATION":97.5568,"RA_OF_ASC_NODE":45.1407,"ARG_OF_PERICENTER":244.877,"MEAN_ANOMALY":115.0702,"EPHEMERIS_TYPE":0,"CLASSIFICATION_TYPE":"U","NORAD_CAT_ID":63352,"ELEMENT_SET_NO":999,"REV_AT_EPOCH":5257,"BSTAR":0.00034972806,"MEAN_MOTION_DOT":6.09e-5,"MEAN_MOTION_DDOT":0}]
